AEHF-5 (USA 292)        
1 44481U 19051A   26060.51203824 -.00000275  00000+0  00000+0 0  9999
2 44481   1.5669 328.5255 0071661   3.2059 104.9815  1.00272704 24186
EUTELSAT 5 WEST B       
1 44624U 19067A   26060.37486590 -.00000061  00000+0  00000+0 0  9995
2 44624   0.1009 306.7245 0003184  39.6161 302.7357  1.00271952 23358
MEV-1                   
1 44625U 19067B   26057.83942429 -.00000160  00000+0  00000+0 0  9991
2 44625   0.8853 269.7923 0003215  58.4490 286.7172  1.00269845 60471
TJS-4                   
1 44637U 19070A   26060.39237266 -.00000188  00000+0  00000+0 0  9999
2 44637   0.0766 276.0925 0007329  94.0892  13.7727  1.00270497 23382
BEIDOU-3 IGSO-3         
1 44709U 19073A   26059.01325398 -.00000145  00000+0  00000+0 0  9996
2 44709  54.9854 282.0779 0040377 189.1116 170.8905  1.00270708 23363
TIBA-1                  
1 44800U 19080A   26060.35183495  .00000137  00000+0  00000+0 0  9995
2 44800   0.0582 333.4669 0001945   2.0209 345.7993  1.00274360 22972
INMARSAT GX5            
1 44801U 19080B   26060.36850338  .00000056  00000+0  00000+0 0  9994
2 44801   0.0482   3.0276 0001954 336.3318 323.4375  1.00270461  5707
JCSAT-18 (KACIFIC 1)    
1 44868U 19091A   26060.33421905 -.00000219  00000+0  00000+0 0  9992
2 44868   0.0418 300.5419 0000309 357.4315 131.4867  1.00271588 22924
ELEKTRO-L 3             
1 44903U 19095A   26060.39089932 -.00000114  00000+0  00000+0 0  9996
2 44903   0.0290 280.2746 0001735  40.7600  54.8375  1.00269982 22626
SHIJIAN-20 (SJ-20)      
1 44910U 19097A   26060.36101512 -.00000131  00000+0  00000+0 0  9991
2 44910   4.6418  76.3920 0008811 265.5987  24.9413  1.00269083 22613
TJS-5                   
1 44978U 20002A   26060.46846633 -.00000361  00000+0  00000+0 0  9999
2 44978   0.2873 269.6737 0004037 119.9409  45.7983  1.00273651 22624
GSAT-30                 
1 45026U 20005A   26060.50618310 -.00000182  00000+0  00000+0 0  9992
2 45026   0.0333 261.2538 0000386 162.2716   0.9650  1.00270813 22429
EUTELSAT KONNECT        
1 45027U 20005B   26060.36850338  .00000031  00000+0  00000+0 0  9997
2 45027   0.0658  98.0796 0001142 218.2186 342.7080  1.00271403 23258
JCSAT-17                
1 45245U 20013A   26060.50009352 -.00000329  00000+0  00000+0 0  9997
2 45245   5.3952 355.8075 0004813 346.4414 133.0397  1.00270631 22157
GEO-KOMPSAT-2B          
1 45246U 20013B   26059.91151192 -.00000362  00000+0  00000+0 0  9998
2 45246   0.0439 303.5156 0001970   6.8373 304.7544  1.00270444 22199
BEIDOU-3 G2             
1 45344U 20017A   26060.17778502 -.00000157  00000+0  00000+0 0  9993
2 45344   2.6474  45.5064 0002681 298.6811 318.8170  1.00271121 22176
AEHF-6 (USA 298)        
1 45465U 20022B   26060.46155991 -.00000318  00000+0  00000+0 0  9995
2 45465   2.7834 299.8594 0049305  14.6297 148.6682  1.00270075 21938
BEIDOU-3 G3             
1 45807U 20040A   26059.61329310 -.00000370  00000+0  00000+0 0  9996
2 45807   2.1795  67.0969 0004911 316.5656 105.9394  1.00264554 20981
APSTAR-6D               
1 45863U 20045A   26060.50102307 -.00000336  00000+0  00000+0 0  9990
2 45863   0.0457 101.9558 0002447 336.1353  35.5767  1.00271884 20785
KOREASAT 116            
1 45920U 20048A   26060.46711506  .00000000  00000+0  00000+0 0  9996
2 45920   0.0192 156.7310 0001149 173.2725 113.6304  1.00271116 20558
EXPRESS 103             
1 45985U 20053A   26060.32364568 -.00000298  00000+0  00000+0 0  9990
2 45985   0.0276 282.4770 0000785 355.0077  94.6292  1.00270608 20564
EXPRESS 80              
1 45986U 20053B   26059.33839049 -.00000153  00000+0  00000+0 0  9991
2 45986   0.0288 244.1768 0001062  39.6775  76.0971  1.00271273 20555
BSAT-4B                 
1 46112U 20056A   26060.39757267 -.00000368  00000+0  00000+0 0  9993
2 46112   0.0405 210.4846 0001347 223.2287 338.4249  1.00269587 20307
MEV-2                   
1 46113U 20056B   26060.37564590 -.00000030  00000+0  00000+0 0  9993
2 46113   0.0167 118.2976 0001053 244.9884 290.0998  1.00270198 79475
GALAXY 30 (G-30)        
1 46114U 20056C   26060.40670370  .00000019  00000+0  00000+0 0  9998
2 46114   0.0191 126.8337 0002071 227.9721 185.7736  1.00271297 20210
GAOFEN-13 01            
1 46610U 20071A   26060.47045968 -.00000381  00000+0  00000+0 0  9995
2 46610   0.2426  85.7664 0043153 120.2136 240.8334  1.00276046 19831
TIANTONG-1 2            
1 46916U 20082A   26060.47193301 -.00000374  00000+0  00000+0 0  9993
2 46916   0.9558 314.5460 0003557  18.6988 120.8491  1.00275439 19576
LUCAS (JDRS-1)          
1 47202U 20089A   26060.50858039 -.00000254  00000+0  00000+0 0  9996
2 47202   0.0677 275.0157 0002864  59.1720  98.9378  1.00273837 19339
SXM-7                   
1 47240U 20096A   26060.28767884 -.00000224  00000+0  00000+0 0  9995
2 47240   0.0190 122.6179 0004058   7.0694  47.7606  1.00274193  6362
CMS-01                  
1 47256U 20099A   26060.50618312 -.00000183  00000+0  00000+0 0  9995
2 47256   0.0131 141.1846 0006654 146.8265 136.4874  1.00272393 19111
TURKSAT 5A              
1 47306U 21001A   26060.31064562  .00000136  00000+0  00000+0 0  9993
2 47306   0.0176 101.0270 0000192 152.7966  48.0316  1.00271042 18889
TIANTONG-1 3            
1 47321U 21003A   26060.39202600 -.00000171  00000+0  00000+0 0  9997
2 47321   1.8568 332.9258 0006673 339.8700  69.0227  1.00269927 18888
