OBJECT_NAME,OBJECT_ID,EPOCH,MEAN_MOTION,ECCENTRICITY,INCLINATION,RA_OF_ASC_NODE,ARG_OF_PERICENTER,MEAN_ANOMALY,EPHEMERIS_TYPE,CLASSIFICATION_TYPE,NORAD_CAT_ID,ELEMENT_SET_NO,REV_AT_EPOCH,BSTAR,MEAN_MOTION_DOT,MEAN_MOTION_DDOT
AEHF-5 (USA 292),2019-051A,2026-03-01T12:17:20.103936,1.00272704,.0071661,1.5669,328.5255,3.2059,104.9815,0,U,44481,999,2418,0,-.275E-5,0
EUTELSAT 5 WEST B,2019-067A,2026-03-01T08:59:48.413760,1.00271952,.0003184,0.1009,306.7245,39.6161,302.7357,0,U,44624,999,2335,0,-.61E-6,0
MEV-1,2019-067B,2026-02-26T20:08:46.258656,1.00269845,.0003215,0.8853,269.7923,58.4490,286.7172,0,U,44625,999,6047,0,-.16E-5,0
TJS-4,2019-070A,2026-03-01T09:25:00.997824,1.00270497,.0007329,0.0766,276.0925,94.0892,13.7727,0,U,44637,999,2338,0,-.188E-5,0
BEIDOU-3 IGSO-3,2019-073A,2026-02-28T00:19:05.143872,1.00270708,.00403779,54.9854,282.0779,189.1116,170.8905,0,U,44709,999,2336,0,-.145E-5,0
TIBA-1,2019-080A,2026-03-01T08:26:38.539680,1.00274360,.0001945,0.0582,333.4669,2.0209,345.7993,0,U,44800,999,2297,0,.137E-5,0
INMARSAT GX5,2019-080B,2026-03-01T08:50:38.692032,1.00270461,.0001954,0.0482,3.0276,336.3318,323.4375,0,U,44801,999,570,0,.56E-6,0
JCSAT-18 (KACIFIC 1),2019-091A,2026-03-01T08:01:16.525920,1.00271588,.0000309,0.0418,300.5419,357.4315,131.4867,0,U,44868,999,2292,0,-.219E-5,0
ELEKTRO-L 3,2019-095A,2026-03-01T09:22:53.701248,1.00269982,.0001735,0.0290,280.2746,40.7600,54.8375,0,U,44903,999,2262,0,-.114E-5,0
SHIJIAN-20 (SJ-20),2019-097A,2026-03-01T08:39:51.706368,1.00269083,.0008811,4.6418,76.3920,265.5987,24.9413,0,U,44910,999,2261,0,-.131E-5,0
TJS-5,2020-002A,2026-03-01T11:14:35.490912,1.00273651,.0004037,0.2873,269.6737,119.9409,45.7983,0,U,44978,999,2262,0,-.361E-5,0
GSAT-30,2020-005A,2026-03-01T12:08:54.219840,1.00270813,.0000386,0.0333,261.2538,162.2716,0.9650,0,U,45026,999,2242,0,-.182E-5,0
EUTELSAT KONNECT,2020-005B,2026-03-01T08:50:38.692032,1.00271403,.0001142,0.0658,98.0796,218.2186,342.7080,0,U,45027,999,2325,0,.31E-6,0
JCSAT-17,2020-013A,2026-03-01T12:00:08.080128,1.00270631,.0004813,5.3952,355.8075,346.4414,133.0397,0,U,45245,999,2215,0,-.329E-5,0
GEO-KOMPSAT-2B,2020-013B,2026-02-28T21:52:34.629888,1.00270444,.000197,0.0439,303.5156,6.8373,304.7544,0,U,45246,999,2219,0,-.362E-5,0
BEIDOU-3 G2,2020-017A,2026-03-01T04:16:00.625728,1.00271121,.0002681,2.6474,45.5064,298.6811,318.8170,0,U,45344,999,2217,0,-.157E-5,0
AEHF-6 (USA 298),2020-022B,2026-03-01T11:04:38.776224,1.00270075,.0049305,2.7834,299.8594,14.6297,148.6682,0,U,45465,999,2193,0,-.318E-5,0
BEIDOU-3 G3,2020-040A,2026-02-28T14:43:08.523840,1.00264554,.0004911,2.1795,67.0969,316.5656,105.9394,0,U,45807,999,2098,0,-.37E-5,0
APSTAR-6D,2020-045A,2026-03-01T12:01:28.393248,1.00271884,.0002447,0.0457,101.9558,336.1353,35.5767,0,U,45863,999,2078,0,-.336E-5,0
KOREASAT 116,2020-048A,2026-03-01T11:12:38.741184,1.00271116,.0001149,0.0192,156.7310,173.2725,113.6304,0,U,45920,999,2055,0,0,0
EXPRESS 103,2020-053A,2026-03-01T07:46:02.986752,1.00270608,.0000785,0.0276,282.4770,355.0077,94.6292,0,U,45985,999,2056,0,-.298E-5,0
EXPRESS 80,2020-053B,2026-02-28T08:07:16.938336,1.00271273,.0001062,0.0288,244.1768,39.6775,76.0971,0,U,45986,999,2055,0,-.153E-5,0
BSAT-4B,2020-056A,2026-03-01T09:32:30.278688,1.00269587,.0001347,0.0405,210.4846,223.2287,338.4249,0,U,46112,999,2030,0,-.368E-5,0
MEV-2,2020-056B,2026-03-01T09:00:55.805760,1.00270198,.0001053,0.0167,118.2976,244.9884,290.0998,0,U,46113,999,7947,0,-.3E-6,0
GALAXY 30 (G-30),2020-056C,2026-03-01T09:45:39.199680,1.00271297,.0002071,0.0191,126.8337,227.9721,185.7736,0,U,46114,999,2021,0,.19E-6,0
GAOFEN-13 01,2020-071A,2026-03-01T11:17:27.716352,1.00276046,.0043153,0.2426,85.7664,120.2136,240.8334,0,U,46610,999,1983,0,-.381E-5,0
TIANTONG-1 2,2020-082A,2026-03-01T11:19:35.012064,1.00275439,.0003557,0.9558,314.5460,18.6988,120.8491,0,U,46916,999,1957,0,-.374E-5,0
LUCAS (JDRS-1),2020-089A,2026-03-01T12:12:21.345696,1.00273837,.0002864,0.0677,275.0157,59.1720,98.9378,0,U,47202,999,1933,0,-.254E-5,0
SXM-7,2020-096A,2026-03-01T06:54:15.451776,1.00274193,.0004058,0.0190,122.6179,7.0694,47.7606,0,U,47240,999,636,0,-.224E-5,0
CMS-01,2020-099A,2026-03-01T12:08:54.221568,1.00272393,.0006654,0.0131,141.1846,146.8265,136.4874,0,U,47256,999,1911,0,-.183E-5,0
TURKSAT 5A,2021-001A,2026-03-01T07:27:19.781568,1.00271042,.0000192,0.0176,101.0270,152.7966,48.0316,0,U,47306,999,1888,0,.136E-5,0
TIANTONG-1 3,2021-003A,2026-03-01T09:24:31.046400,1.00269927,.0006673,1.8568,332.9258,339.8700,69.0227,0,U,47321,999,1888,0,-.171E-5,0
